NORAD_CAT_ID,OBJECT_NAME,OBJECT_TYPE,EPOCH,MEAN_MOTION,ECCENTRICITY,INCLINATION,RA_OF_ASC_NODE,ARG_OF_PERICENTER,MEAN_ANOMALY,BSTAR,MEAN_MOTION_DOT,MEAN_MOTION_DDOT,TLE_LINE0,TLE_LINE1,TLE_LINE2,SEMIMAJOR_AXIS,PERIOD,APOGEE,PERIGEE,DECAYED
52606.0,STARLINK-3928,PAYLOAD,2023-05-07 12:45:06,15.08828122,8.85e-05,53.2169,255.1051,75.4848,284.6242,-0.0002482,-4.234e-05,0.0,0 STARLINK-3928,1 52606U 22052J   23127.53133007 -.00004234  00000-0 -24820-3 0  9991,2 52606  53.2169 255.1051 0000885  75.4848 284.6242 15.08828122 54287,6917.917,95.438,540.394,539.169,0.0
52606.0,STARLINK-3928,PAYLOAD,2023-05-07 15:55:53,15.08829187,9.58e-05,53.2145,254.5076,55.8129,304.2954,-0.00023336,-3.999e-05,0.0,0 STARLINK-3928,1 52606U 22052J   23127.66381026 -.00003999  00000-0 -23336-3 0  9999,2 52606  53.2145 254.5076 0000958  55.8129 304.2954 15.08829187 54670,6917.913,95.438,540.441,539.116,0.0
52606.0,STARLINK-3928,PAYLOAD,2023-05-08 01:28:12,15.08837965,0.0001053,53.2166,252.7254,68.2763,291.8342,6.7652e-05,7.89e-06,0.0,0 STARLINK-3928,1 52606U 22052J   23128.06125011  .00000789  00000-0  67652-4 0  9996,2 52606  53.2166 252.7254 0001053  68.2763 291.8342 15.08837965 54732,6917.887,95.438,540.48,539.023,0.0
52606.0,STARLINK-3928,PAYLOAD,2023-05-08 15:46:40,15.08859665,9.82e-05,53.2155,250.0487,58.5881,301.5207,0.0011448,0.00017988,0.0,0 STARLINK-3928,1 52606U 22052J   23128.65740819  .00017988  00000-0  11448-2 0  9999,2 52606  53.2155 250.0487 0000982  58.5881 301.5207 15.08859665 54822,6917.82,95.436,540.365,539.006,0.0
52606.0,STARLINK-3928,PAYLOAD,2023-05-09 14:02:03,15.08858387,0.0001077,53.2158,245.8856,60.8496,299.2604,0.00088435,0.00013822,0.0,0 STARLINK-3928,1 52606U 22052J   23129.58476798  .00013822  00000-0  88435-3 0  9998,2 52606  53.2158 245.8856 0001077  60.8496 299.2604 15.08858387 54599,6917.824,95.436,540.434,538.944,0.0
52606.0,STARLINK-3928,PAYLOAD,2023-05-10 12:17:28,15.08843298,0.0001125,53.2157,241.721,101.7701,258.3417,0.00054378,8.378e-05,0.0,0 STARLINK-3928,1 52606U 22052J   23130.51212986  .00008378  00000-0  54378-3 0  9999,2 52606  53.2157 241.7210 0001125 101.7701 258.3417 15.08843298 54734,6917.87,95.437,540.514,538.957,0.0
52606.0,STARLINK-3928,PAYLOAD,2023-05-10 15:28:14,15.08846823,0.0001022,53.216,241.1281,81.892,278.2188,0.00023758,3.496e-05,0.0,0 STARLINK-3928,1 52606U 22052J   23130.64460843  .00003496  00000-0  23758-3 0  9994,2 52606  53.2160 241.1281 0001022  81.8920 278.2188 15.08846823 55124,6917.86,95.437,540.432,539.018,0.0
52606.0,STARLINK-3928,PAYLOAD,2023-05-11 10:32:51,15.08841235,0.0001042,53.2156,237.5582,120.296,239.8135,0.00012731,1.739e-05,0.0,0 STARLINK-3928,1 52606U 22052J   23131.43948976  .00001739  00000-0  12731-3 0  9997,2 52606  53.2156 237.5582 0001042 120.2960 239.8135 15.08841235 55246,6917.877,95.437,540.462,539.021,0.0
52606.0,STARLINK-3928,PAYLOAD,2023-05-11 13:43:38,15.0884564,0.000112,53.2161,236.9635,96.4557,263.6562,0.00025695,3.804e-05,0.0,0 STARLINK-3928,1 52606U 22052J   23131.57196967  .00003804  00000-0  25695-3 0  9995,2 52606  53.2161 236.9635 0001120  96.4557 263.6562 15.08845640 54890,6917.863,95.437,540.503,538.953,0.0
52606.0,STARLINK-3928,PAYLOAD,2023-05-13 11:49:49,15.0884118,0.0001259,53.2169,228.3471,119.5801,240.5317,0.00029119,4.35e-05,0.0,0 STARLINK-3928,1 52606U 22052J   23133.49293008  .00004350  00000-0  29119-3 0  9994,2 52606  53.2169 228.3471 0001259 119.5801 240.5317 15.08841180 55554,6917.877,95.437,540.613,538.871,0.0
52606.0,STARLINK-3928,PAYLOAD,2023-05-13 15:00:35,15.08829896,0.0001546,53.2165,227.7446,123.0846,237.0295,0.00072757,0.00011307,0.0,0 STARLINK-3928,1 52606U 22052J   23133.62541558  .00011307  00000-0  72757-3 0  9991,2 52606  53.2165 227.7446 0001546 123.0846 237.0295 15.08829896 55571,6917.911,95.438,540.846,538.707,0.0
52606.0,STARLINK-3928,PAYLOAD,2023-05-13 22:57:30,15.08847688,0.0001139,53.2172,226.2588,76.9377,283.1743,8.5129e-05,1.068e-05,0.0,0 STARLINK-3928,1 52606U 22052J   23133.95660483  .00001068  00000-0  85129-4 0  9997,2 52606  53.2172 226.2588 0001139  76.9377 283.1743 15.08847688 55628,6917.857,95.437,540.51,538.934,0.0
52606.0,STARLINK-3928,PAYLOAD,2023-05-14 10:05:13,15.08830005,0.0001189,53.2159,224.1755,82.7237,277.389,-9.6784e-05,-1.827e-05,0.0,0 STARLINK-3928,1 52606U 22052J   23134.42029530 -.00001827  00000-0 -96784-4 0  9996,2 52606  53.2159 224.1755 0001189  82.7237 277.3890 15.08830005 55691,6917.911,95.438,540.598,538.953,0.0
52606.0,STARLINK-3928,PAYLOAD,2023-05-14 13:15:59,15.08832024,0.0001293,53.2168,223.5813,91.8208,268.2932,-5.8661e-05,-1.221e-05,0.0,0 STARLINK-3928,1 52606U 22052J   23134.55277445 -.00001221  00000-0 -58661-4 0  9990,2 52606  53.2168 223.5813 0001293  91.8208 268.2932 15.08832024 55345,6917.905,95.438,540.664,538.875,0.0
52606.0,STARLINK-3928,PAYLOAD,2023-05-14 14:51:22,15.08833619,0.000135,53.217,223.2836,90.6977,269.417,-3.0879e-05,-7.79e-06,0.0,0 STARLINK-3928,1 52606U 22052J   23134.61901409 -.00000779  00000-0 -30879-4 0  9999,2 52606  53.2170 223.2836 0001350  90.6977 269.4170 15.08833619 55353,6917.9,95.438,540.699,538.831,0.0
52606.0,STARLINK-3928,PAYLOAD,2023-05-15 00:23:41,15.08835504,0.0001136,53.2161,221.5005,87.203,272.9092,5.0442e-06,-2.08e-06,0.0,0 STARLINK-3928,1 52606U 22052J   23135.01645404 -.00000208  00000-0  50442-5 0  9999,2 52606  53.2161 221.5005 0001136  87.2030 272.9092 15.08835504 55780,6917.894,95.438,540.545,538.973,0.0
52606.0,STARLINK-3928,PAYLOAD,2023-05-15 11:31:23,15.08841984,0.0001033,53.2159,219.4211,95.8211,264.2899,0.0001164,1.565e-05,0.0,0 STARLINK-3928,1 52606U 22052J   23135.48013232  .00001565  00000-0  11640-3 0  9999,2 52606  53.2159 219.4211 0001033  95.8211 264.2899 15.08841984 55489,6917.874,95.437,540.454,539.025,0.0
52606.0,STARLINK-3928,PAYLOAD,2023-05-15 14:42:09,15.08842827,0.0001045,53.2158,218.8263,92.9757,267.1355,0.0002916,4.356e-05,0.0,0 STARLINK-3928,1 52606U 22052J   23135.61261324  .00004356  00000-0  29160-3 0  9998,2 52606  53.2158 218.8263 0001045  92.9757 267.1355 15.08842827 55503,6917.872,95.437,540.46,539.014,0.0
52606.0,STARLINK-3928,PAYLOAD,2023-05-16 03:25:15,15.08834336,0.0001102,53.2156,216.4473,91.467,268.6448,0.00016762,2.38e-05,0.0,0 STARLINK-3928,1 52606U 22052J   23136.14253903  .00002380  00000-0  16762-3 0  9990,2 52606  53.2156 216.4473 0001102  91.4670 268.6448 15.08834336 55954,6917.898,95.438,540.525,539.0,0.0
52606.0,STARLINK-3928,PAYLOAD,2023-05-16 14:32:57,15.08841764,0.0001071,53.2157,214.3657,87.2605,272.851,0.00022235,3.253e-05,0.0,0 STARLINK-3928,1 52606U 22052J   23136.60621763  .00003253  00000-0  22235-3 0  9996,2 52606  53.2157 214.3657 0001071  87.2605 272.8510 15.08841764 55659,6917.875,95.437,540.481,538.999,0.0
52606.0,STARLINK-3928,PAYLOAD,2023-05-16 17:43:43,15.08845243,0.0001062,53.2158,213.771,87.0288,273.0825,0.00027438,4.082e-05,0.0,0 STARLINK-3928,1 52606U 22052J   23136.73869623  .00004082  00000-0  27438-3 0  9990,2 52606  53.2158 213.7710 0001062  87.0288 273.0825 15.08845243 55678,6917.864,95.437,540.464,538.995,0.0
52606.0,STARLINK-3928,PAYLOAD,2023-05-17 11:12:57,15.08845027,0.0001078,53.2158,210.5004,79.2597,280.8516,0.00023014,3.377e-05,0.0,0 STARLINK-3928,1 52606U 22052J   23137.46733748  .00003377  00000-0  23014-3 0  9991,2 52606  53.2158 210.5004 0001078  79.2597 280.8516 15.08845027 56159,6917.865,95.437,540.476,538.984,0.0
52606.0,STARLINK-3928,PAYLOAD,2023-05-18 11:03:45,15.0883944,0.0001127,53.2159,206.0407,74.4529,285.6587,0.00010356,1.361e-05,0.0,0 STARLINK-3928,1 52606U 22052J   23138.46094008  .00001361  00000-0  10356-3 0  9997,2 52606  53.2159 206.0407 0001127  74.4529 285.6587 15.08839440 56304,6917.882,95.438,540.527,538.967,0.0
52606.0,STARLINK-3928,PAYLOAD,2023-05-18 14:14:31,15.08843291,0.0001129,53.2158,205.4458,75.5944,284.5173,0.00013324,1.834e-05,0.0,0 STARLINK-3928,1 52606U 22052J   23138.59341788  .00001834  00000-0  13324-3 0  9994,2 52606  53.2158 205.4458 0001129  75.5944 284.5173 15.08843291 55955,6917.87,95.437,540.516,538.954,0.0
52606.0,STARLINK-3928,PAYLOAD,2023-05-19 10:54:32,15.0883813,0.0001102,53.2162,201.5788,96.9841,263.1276,1.2668e-05,-8.6e-07,0.0,0 STARLINK-3928,1 52606U 22052J   23139.45454173 -.00000086  00000-0  12668-4 0  9993,2 52606  53.2162 201.5788 0001102  96.9841 263.1276 15.08838130 56085,6917.886,95.438,540.513,538.989,0.0
52606.0,STARLINK-3928,PAYLOAD,2023-05-20 10:45:18,15.08850894,0.0001076,53.2162,197.1179,95.8514,264.2601,0.00017122,2.439e-05,0.0,0 STARLINK-3928,1 52606U 22052J   23140.44812962  .00002439  00000-0  17122-3 0  9990,2 52606  53.2162 197.1179 0001076  95.8514 264.2601 15.08850894 56607,6917.847,95.437,540.456,538.968,0.0
52606.0,STARLINK-3928,PAYLOAD,2023-05-20 20:17:38,15.0883121,0.0001348,53.214,195.331,64.9085,295.2046,0.00084859,0.0001324,0.0,0 STARLINK-3928,1 52606U 22052J   23140.84558522  .00013240  00000-0  84859-3 0  9996,2 52606  53.2140 195.3310 0001348  64.9085 295.2046 15.08831210 56295,6917.907,95.438,540.705,538.84,0.0
52606.0,STARLINK-3928,PAYLOAD,2023-05-21 02:39:10,15.08845072,0.0001077,53.2153,194.1456,94.683,265.4285,0.00013324,1.834e-05,0.0,0 STARLINK-3928,1 52606U 22052J   23141.11053343  .00001834  00000-0  13324-3 0  9993,2 52606  53.2153 194.1456 0001077  94.6830 265.4285 15.08845072 56705,6917.865,95.437,540.475,538.985,0.0
52606.0,STARLINK-3928,PAYLOAD,2023-05-21 10:36:05,15.08845761,0.0001182,53.2157,192.6593,106.3599,253.7523,0.0001347,1.857e-05,0.0,0 STARLINK-3928,1 52606U 22052J   23141.44173206  .00001857  00000-0  13470-3 0  9997,2 52606  53.2157 192.6593 0001182 106.3599 253.7523 15.08845761 56388,6917.863,95.437,540.545,538.91,0.0
52606.0,STARLINK-3928,PAYLOAD,2023-05-21 20:08:24,15.08842448,0.0001135,53.215,190.8747,81.4888,278.6233,-3.1908e-05,-7.96e-06,0.0,0 STARLINK-3928,1 52606U 22052J   23141.83917192 -.00000796  00000-0 -31908-4 0  9990,2 52606  53.2150 190.8747 0001135  81.4888 278.6233 15.08842448 56444,6917.873,95.437,540.523,538.953,0.0
